#dP2020  9 12  0  0  0.00000000      96 __u+U ITR00 FIT  IAC
## 2122 518400.00000000   900.00000000 59104 0.0000000000000
+  112   C06C07C08C09C10C11C12C13C14C16C19C20C21C22C23C24C25
+        C26C27C28C29C30C32C33C34C35C36C37C40C43C44C45C46E01
+        E02E03E04E05E07E08E09E11E12E13E14E15E18E19E21E24E25
+        E26E27E30E31E33E36G01G02G03G04G05G06G07G08G09G10G11
+        G12G13G15G16G17G18G19G20G21G22G24G25G26G27G28G29G30
+        G31G32J01J02J03R01R02R03R04R05R07R08R11R12R13R14R15
+        R16R17R18R19R20R21R22R23R24R26  0  0  0  0  0  0  0
++         8  8  7  8  8  7  7  8  7  8  7  7  7  7  7  6  6
++         7  7  8  7  7  8  8  7  8  7  8  6  8  8  9 11  7
++         7  7  6  6  7  7  6  8  8  6  6  7  6  6  7  6  7
++         5  7  7  6  6  7  6  7  6  6  6  6  6  6  6  6  6
++         7  6  7  6  6  7  6  7  5  6  7  7  6  7  6  7  7
++         8  6 11  9  6  7  7  7  7  6  6  7  8  7  7  7  6
++         6  6  7  6  6  6  7  8  7  7  0  0  0  0  0  0  0
%c M  cc GPS ccc cccc cccc cccc cccc ccccc ccccc ccccc ccccc
%c cc cc ccc ccc cccc cccc cccc cccc ccccc ccccc ccccc ccccc
%f  0.0000000  0.000000000  0.00000000000  0.000000000000000
%f  0.0000000  0.000000000  0.00000000000  0.000000000000000
%i    0    0    0    0      0      0      0      0         0
%i    0    0    0    0      0      0      0      0         0
/* INFORMATION & ANALYSIS CENTER (IAC)      ULTRA-RAPID DATA
/* S/V CLOCKS ARE ALIGNED TO GNSS TIME                      
/* G:C1WC2W R:C1PC2P E:C1XC5X C:C2IC6I J:C1CC2S             
/* PCV:IGS14_2118 OL/AL:FES2004  NONE     YN ORB:CoN CLK:CoN
*  2020 09 12  4 15  0.00000000
PC06 -22634.068181  35521.035457  -4438.997939    245.531203
PC07  -8867.510978  30258.007220 -27510.266763     -4.880018
PC08 -18052.772197  18206.014961  33454.368416   -518.213765
PC09 -12404.435874  35929.275033 -18404.244735    804.486229
PC10   3390.091311  37387.986335 -18527.205369   -188.874234
PC11 -23347.082426  12511.696541  -8627.674686   -615.245220
PC12 -17476.541501  -3446.431256 -21439.337776    506.573838
PC13  -2023.889527  22829.728315  35459.593434    642.871473
PC14 -14899.229374   6281.529845  22760.162342    265.360018
PC16 -19310.065179  36576.661248  -8577.821776   -589.190571
PC19  10610.111900 -16429.560883 -19894.322491    543.121873
PC20  16488.965067   3398.723788 -22241.109797   -842.262960
PC21 -12729.654654 -22084.918111  11394.163479   -676.768487
PC22  -1512.071115 -27241.920446  -5941.397628   -765.424474
PC23   1532.676813  17093.891692 -21989.131582   -861.692992
PC24 -26892.440051  -5189.861588  -5289.334286   -729.146318
PC25 -17440.481320   9242.861355 -19718.606334   -753.838740
PC26 -20815.758147 -14838.192546  11155.934764    827.031446
PC27  10321.076372  12024.431549  22952.396973    397.489836
PC28  -7698.120785  21374.843243  16197.262657   -171.324840
PC29  20454.909607 -18987.200699     10.793771    282.670683
PC30  21973.194877  -4808.146501  16504.514975    374.499051
PC32  12879.654970  21984.946670 -11360.392062   -901.134479
PC33 -10621.358620  16372.593722  19938.901637   -796.918874
PC34 -22192.138834   5234.567203 -16107.501822   -856.694204
PC35   7126.991849 -21701.084939 -16017.155408   -658.249800
PC36  17872.203128  -8685.800988  19624.505635   -926.643299
PC37  19986.671177  15548.650933 -11713.162506   -929.657737
PC40    -46.311033  35850.175835 -22025.316998     80.288208
PC43 -20734.072998  18686.821798   -375.600899 999999.999999
PC44 -10664.114058 -11906.276897 -22880.350976 999999.999999
PC45  -1630.383180 -16993.562566  22086.997365    228.510012
PC46  26882.749398   4681.402236   5936.671979    643.050073
PE01  15494.072203  -7428.193217  24111.150530   -938.980788
PE02 -15409.147852   7519.193564 -24120.060605    161.015246
PE03 -16330.697378  18926.999720  15835.287969   -341.907588
PE04   6185.976023 -28910.894028   1497.291073   -605.356521
PE05 -17029.908783  -2282.705394  24102.588782   -346.840717
PE07   7783.627669  21972.582649 -18230.855014   -434.936065
PE08  -5848.252700  28955.310747  -1746.495147   6121.874939
PE09  -7878.124796 -21833.612692  18381.703564   5933.684158
PE11 -13242.781885 -12207.422354 -23501.280071   5447.244802
PE12   9217.078442 -17702.506148 -21859.699636   5609.819895
PE13  12994.926396  12215.640309  23624.849117    403.613208
PE14 -21895.500726  13378.805374 -14152.897682  -1152.798900
PE15  -8971.128118  17670.967779  21987.171745    852.835624
PE18  14678.809211 -24291.335405   -876.703618  -1259.920994
PE19  16841.876246 -16984.568008 -17435.571943     76.331366
PE21  24009.408722  10299.436603  13917.948359   -620.945700
PE24 -18330.019858 -22684.565358   5011.329726   5248.611513
PE25 -24022.739863 -10450.087742 -13770.294694   -516.488937
PE26  27538.424419   -557.407588  10856.908154   2736.282076
PE27  18717.232749  22460.437567  -4613.616034    135.941592
PE30   1810.606330  21180.285993 -20600.508640   3591.515829
PE31  -2442.970427 -21366.642346  20356.934357   -474.078320
PE33  25669.934832 -12737.100986  -7421.615609   -462.847782
PE36 -27315.682450    407.437236 -11389.102468    508.597907
PG01  -9624.818025 -13745.119342 -20906.585572     36.072719
PG02 -13282.678063  14431.647743  18539.662986   -515.253788
PG03 -12427.748795 -23401.482309  -2605.554678   -296.658588
PG04  -4025.418117 -18743.273514  18374.313939   -134.972932
PG05  -3358.464768  18560.660814  18471.696559    -20.906830
PG06 -24564.746717   6231.196700   8064.107282   -324.871830
PG07 -23976.615675  -6727.091881  10229.225426   -370.635065
PG08   4169.885362 -23892.678617 -10501.198433    -47.667086
PG09 -13264.499108  -7759.929740  21606.511174   -284.729731
PG10  17692.195434   2751.837399 -19611.708980   -452.363182
PG11    416.634741 -17985.160977 -20107.591617   -166.749943
PG12   9749.349060  24479.935265  -4157.816371     68.358797
PG13 -12785.373153  22863.802957  -4140.833536     44.466140
PG15   -632.990861  24033.927340 -11200.427869   -204.269877
PG16   3326.669084 -19430.249024  17357.519267   -207.966616
PG17 -18449.666561   9986.144284 -15837.602542    324.658779
PG18  24215.418568   6078.527968   9115.308132    288.556830
PG19 -19001.255088  15233.264064 -10813.401511   -106.045300
PG20  20916.072205  12378.541573 -11072.975393    526.762489
PG21  16121.494278 -12910.841636 -15796.732022     46.167076
PG22  -8275.565152 -23205.084537  -9920.510894   -755.316129
PG24   6866.843894  14955.592311 -21106.586693    -18.448128
PG25  17131.128142  19447.367910   6174.760946     47.896575
PG26  12692.449477  -8967.756374  21504.012246    277.345937
PG27  12303.647734 -23329.245537   -166.430957   -393.558662
PG28 -16397.485539  -2331.929947 -20145.762818    679.697852
PG29   9841.112506  11481.697530  21789.747000   -192.901991
PG30 -26679.800304      9.719530     57.943199   -300.126466
PG31  23978.254391  -6967.533987   9647.479238    -68.152542
PG32  18238.105390 -11159.998640 -15574.197672    345.166576
PJ01 -26206.708141  26548.741904  24550.285486   -347.835785
PJ02 -24971.630044  15667.924111 -25673.135348     -3.569086
PJ03 -27981.710328  31460.675939   2208.312267     -1.055150
PR01  -3088.936573  23917.571420   8287.564808     67.443584
PR02   6305.837508  21194.897955 -12731.723956    445.211694
PR03  10810.700500   5050.109893 -22514.189329     21.863129
PR04   8892.981746 -13802.562199 -19496.968687     54.264988
PR05   2159.496735 -24810.302859  -5459.823156     57.417455
PR07 -10876.017914  -4282.880229  22699.509677    -40.043060
PR08  -9038.125047  13790.137875  19518.574722    -54.506695
PR11 -14419.530405   3626.943296 -20718.874307    -37.341663
PR12   1759.280334  12850.481720 -21933.154448    163.085856
PR13  17505.500486  15151.389451 -10709.212791    -43.739647
PR14  22900.302320   8609.740738   7205.336440     55.453303
PR15  14990.589138  -2869.775146  20464.289675    106.979326
PR16  -2538.101019 -13171.384344  21657.633624     -6.242723
PR17  19483.490503  -3046.915029  16213.079615    357.410341
PR18  22055.556618 -12756.778437    576.949438     49.063446
PR19  13773.764898 -15378.024209 -14995.147271   -110.815083
PR20  -5107.793951  -9020.765923 -23302.650427   -421.567538
PR21 -19911.320453   3705.211829 -15486.812602   -151.569243
PR22 -21893.395585  13161.630814    650.361475    -72.486302
PR23  -7070.227596  14422.230983  19801.461954    331.404471
PR24   6121.882205   8986.627384  23087.189890     12.986582
PR26     -6.380244 -11750.319508 -22636.312144   -362.321584
EOF
